NUSAT-49 (KLARA DAN VO*)
1 60500U 24149AJ  26068.79810190  .00012912  00000+0  43568-3 0  9991
2 60500  97.3807 150.7380 0001132 286.7761  73.3356 15.30828857 86935
STARLINK-32621          
1 62303U 24239C   26068.53990343  .00036821  00000+0  12503-2 0  9994
2 62303  53.1574 181.6429 0001069  97.8064 262.3058 15.30171402 69546
